[{"OBJECT_NAME":"SHIYAN-24C 03","OBJECT_ID":"2023-206C","EPOCH":"2026-03-09T21:23:43.281888","MEAN_MOTION":14.97896938,"ECCENTRICITY":0.0002411,"INCLINATION":97.3969,"RA_OF_ASC_NODE":41.7507,"ARG_OF_PERICENTER":66.6237,"MEAN_ANOMALY":293.524,"EPHEMERIS_TYPE":0,"CLASSIFICATION_TYPE":"U","NORAD_CAT_ID":58652,"ELEMENT_SET_NO":999,"REV_AT_EPOCH":12043,"BSTAR":0.00011928,"MEAN_MOTION_DOT":1.35e-5,"MEAN_MOTION_DDOT":0},{"OBJECT_NAME":"STARLINK-33946","OBJECT_ID":"2025-102N","EPOCH":"2026-03-09T13:29:01.639392","MEAN_MOTION":14.98331113,"ECCENTRICITY":0.0003559,"INCLINATION":70.0015,"RA_OF_ASC_NODE":114.7583,"ARG_OF_PERICENTER":266.8862,"MEAN_ANOMALY":93.189,"EPHEMERIS_TYPE":0,"CLASSIFICATION_TYPE":"U","NORAD_CAT_ID":64034,"ELEMENT_SET_NO":999,"REV_AT_EPOCH":4598,"BSTAR":9.762e-5,"MEAN_MOTION_DOT":1.072e-5,"MEAN_MOTION_DDOT":0}]
