SHIYAN-24C 03           
1 58652U 23206C   26068.89147317  .00001350  00000+0  11928-3 0  9993
2 58652  97.3969  41.7507 0002411  66.6237 293.5240 14.97896938120432
STARLINK-33946          
1 64034U 25102N   26068.56182453  .00001072  00000+0  97620-4 0  9990
2 64034  70.0015 114.7583 0003559 266.8862  93.1890 14.98331113 45981
